ONEWEB-0018             
1 45434U 20020L   25344.23079473 -.00000355  00000+0 -10384-2 0  9999
2 45434  87.8865  58.6899 0001842 101.7314 258.4021 13.11416690277865
ONEWEB-0083             
1 45435U 20020M   25344.22147732  .00000022  00000+0  26130-4 0  9990
2 45435  87.8865  58.6811 0001703 100.6734 259.4585 13.11415582277900
ONEWEB-0095             
1 45436U 20020N   25344.28858625  .00000475  00000+0  13033-2 0  9995
2 45436  87.8857  58.6790 0001137 124.9057 235.2178 13.11413814277913
ONEWEB-0092             
1 45437U 20020P   25344.26047322  .00000058  00000+0  12646-3 0  9995
2 45437  87.8864  58.6832 0001525 109.7861 250.3431 13.11418942278024
ONEWEB-0085             
1 45438U 20020Q   25344.22061889  .00000120  00000+0  30378-3 0  9998
2 45438  87.8855  58.6999 0001687 104.4029 255.7286 13.11417756277901
ONEWEB-0096             
1 45439U 20020R   25344.22233869  .00000990  00000+0  27582-2 0  9995
2 45439  87.8868  58.6798 0001715 105.5779 254.5539 13.11411905277895
ONEWEB-0037             
1 45440U 20020S   25344.27912116  .00000649  00000+0  17947-2 0  9996
2 45440  87.8876  58.6381 0001656 106.1190 254.0121 13.11418703277932
ONEWEB-0042             
1 45441U 20020T   25344.28830175  .00000500  00000+0  13748-2 0  9993
2 45441  87.8865  58.6662 0001735 108.6414 251.4902 13.11418279277900
